COSMOS 2425 (716)       
1 29670U 06062A   21018.31783351  .00000007  00000-0  00000-0 0  9998
2 29670  64.8853 260.5245 0024580 348.3591 177.4395  2.13107776109477
COSMOS 2433 (720)       
1 32275U 07052A   21020.65201471 -.00000043  00000-0  00000-0 0  9992
2 32275  66.0374  21.6967 0005354 258.2971  77.9851  2.13104237103036
COSMOS 2432 (719)       
1 32276U 07052B   21020.59238583 -.00000043  00000-0  00000-0 0  9990
2 32276  66.0497  21.7901 0011716 317.0229 283.1387  2.13103445103036
COSMOS 2434 (721)       
1 32393U 07065A   21020.76949940  .00000026  00000-0  00000-0 0  9999
2 32393  64.5018 258.9682 0003850  72.4587 241.9437  2.13103048101740
COSMOS 2436 (723)       
1 32395U 07065C   21020.42369730  .00000022  00000-0  00000-0 0  9993
2 32395  64.5097 259.0309 0015851   2.9821 182.2894  2.13102946101672
COSMOS 2456 (730)       
1 36111U 09070A   21020.93066918  .00000009  00000-0  00000-0 0  9994
2 36111  64.2544 138.6415 0002475 332.9733 277.5845  2.13099145 86416
COSMOS 2457 (733)       
1 36112U 09070B   21020.78873322  .00000010  00000-0  00000-0 0  9995
2 36112  64.2370 138.5347 0006385 155.1093 109.7575  2.13101380 86416
COSMOS 2459 (731)       
1 36400U 10007A   21020.67541698 -.00000043  00000-0  00000-0 0  9990
2 36400  65.9357  20.6390 0025706 343.5017 226.8469  2.13105036 84755
COSMOS 2461 (735)       
1 36401U 10007B   21020.67356667 -.00000043  00000-0  00000-0 0  9991
2 36401  65.9309  20.6036 0019768 359.1990 211.7204  2.13103700 84761
COSMOS 2460 (732)       
1 36402U 10007C   21020.74098838 -.00000043  00000-0  00000+0 0  9992
2 36402  65.9179  20.5610 0002670 271.3153 294.6635  2.13106540 84767
COSMOS 2464 (736)       
1 37139U 10041C   21020.77620595  .00000027  00000-0  00000-0 0  9994
2 37139  64.1013 258.2981 0028690  11.6262 169.9293  2.13100733 80825
COSMOS 2471 (701K)      
1 37372U 11009A   21020.23456472 -.00000045  00000-0  00000-0 0  9991
2 37372  65.9148  20.5132 0010309 235.9791 105.0166  2.13107501 77024
COSMOS 2476 (744)       
1 37867U 11064A   21020.70139413  .00000013  00000-0  00000-0 0  9990
2 37867  64.5513 139.8041 0019307 233.3927 102.3337  2.13101808 71755
COSMOS 2477 (745)       
1 37868U 11064B   21020.85819612  .00000012  00000-0  00000-0 0  9992
2 37868  64.5588 139.8574 0016787 233.6136  40.8129  2.13101667 71717
COSMOS 2475 (743)       
1 37869U 11064C   21020.68992503  .00000013  00000-0  00000-0 0  9996
2 37869  64.5664 139.8664 0020179 256.5741 206.3451  2.13101798 71722
COSMOS 2485 (747)       
1 39155U 13019A   21020.67737332  .00000014  00000-0  00000-0 0  9995
2 39155  64.7183 140.1211 0019830 228.6461 133.1772  2.13101786 60238
COSMOS 2492 (754)       
1 39620U 14012A   21020.93291545 -.00000042  00000-0  00000-0 0  9998
2 39620  65.8074  20.3062 0014997 316.1166 276.6689  2.13103173 53181
COSMOS 2500 (755)       
1 40001U 14032A   21020.60682490 -.00000044  00000-0  00000-0 0  9994
2 40001  65.7466  20.2166 0007980 222.2511 340.3545  2.13102472 51391
COSMOS 2501 (702K)      
1 40315U 14075A   21020.45660483  .00000021  00000-0  00000-0 0  9994
2 40315  63.8150 259.1726 0015680 209.9515  43.2508  2.13101330 47794
COSMOS 2514 (751)       
1 41330U 16008A   21020.61614522 -.00000045  00000-0  00000-0 0  9998
2 41330  65.5492  20.0350 0011559 225.3499 167.2668  2.13102847 38565
COSMOS 2516 (753)       
1 41554U 16032A   21019.48209824  .00000012  00000-0  00000+0 0  9993
2 41554  64.0400 259.3400 0011781 219.2958 275.3934  2.13106625 36145
COSMOS 2522 (752)       
1 42939U 17055A   21020.78852715  .00000025  00000-0  00000+0 0  9999
2 42939  64.2731 259.5378 0006295 255.1250  27.6230  2.13102034 25927
COSMOS 2527 (756)       
1 43508U 18053A   21020.72155517  .00000013  00000-0  00000-0 0  9999
2 43508  64.8821 140.0127 0006969 220.3294  43.0272  2.13102467 20217
COSMOS 2529 (757)       
1 43687U 18086A   21020.70920865  .00000024  00000-0  00000-0 0  9999
2 43687  64.4857 259.7202 0009084 279.3715 258.0888  2.13102104 17232
COSMOS 2534 (758)       
1 44299U 19030A   21020.76707926  .00000025  00000-0  00000-0 0  9997
2 44299  64.5568 259.5531 0012555 296.5431  60.2266  2.13101925 12876
COSMOS 2544 (759)       
1 44850U 19088A   21020.65642446  .00000014  00000-0  00000-0 0  9994
2 44850  64.8667 139.8782 0010359 259.1838 358.0922  2.13102269  8656
COSMOS 2545 (760)       
1 45358U 20018A   21020.80038274 -.00000045  00000-0  00000-0 0  9993
2 45358  64.8801  21.0601 0011525 254.9714 322.9527  2.13102719  6608
